{"type": "FeatureCollection", "features": [ {"type": "Feature", "properties": {"norad_id": 28649, "name": "IRS-P5 (CARTOSAT-1)", "group": "resource", "lat": 80.92839823756609, "lon": -45.23338884404536, "alt_km": 588.5503510964254, "timestamp": "2025-12-10T09:57:44.360798+00:00", "meta": {"OBJECT_NAME": "IRS-P5 (CARTOSAT-1)", "OBJECT_ID": "2005-017A", "EPOCH": "2025-12-09T19:04:50.908224", "MEAN_MOTION": 14.90389909, "ECCENTRICITY": 0.0001402, "INCLINATION": 97.5497, "RA_OF_ASC_NODE": 10.3388, "ARG_OF_PERICENTER": 46.4373, "MEAN_ANOMALY": 313.6962, "EPHEMERIS_TYPE": 0, "CLASSIFICATION_TYPE": "U", "NORAD_CAT_ID": 28649, "ELEMENT_SET_NO": 999, "REV_AT_EPOCH": 11560, "BSTAR": 0.00025861, "MEAN_MOTION_DOT": 2.466e-05, "MEAN_MOTION_DDOT": 0}, "tle": {"line1": "1 28649U 05017A   25343.79503366  .00002466  00000+0  25861-3 0  9990", "line2": "2 28649  97.5497  10.3388 0001402  46.4373 313.6962 14.90389909115604"}}, "geometry": {"type": "Point", "coordinates": [-45.23338884404536, 80.92839823756609]}}, {"type": "Feature", "properties": {"norad_id": 28893, "name": "SINAH 1", "group": "resource", "lat": -59.801235581804534, "lon": 127.42046319927657, "alt_km": 697.3137235371023, "timestamp": "2025-12-10T09:57:44.360808+00:00", "meta": {"OBJECT_NAME": "SINAH 1", "OBJECT_ID": "2005-043D", "EPOCH": "2025-12-10T03:40:45.044832", "MEAN_MOTION": 14.63957816, "ECCENTRICITY": 0.0015214, "INCLINATION": 98.2601, "RA_OF_ASC_NODE": 112.7036, "ARG_OF_PERICENTER": 144.6624, "MEAN_ANOMALY": 215.5589, "EPHEMERIS_TYPE": 0, "CLASSIFICATION_TYPE": "U", "NORAD_CAT_ID": 28893, "ELEMENT_SET_NO": 999, "REV_AT_EPOCH": 7286, "BSTAR": 0.00016041, "MEAN_MOTION_DOT": 7.92e-06, "MEAN_MOTION_DDOT": 0}, "tle": {"line1": "1 28893U 05043D   25344.15329913  .00000792  00000+0  16041-3 0  9995", "line2": "2 28893  98.2601 112.7036 0015214 144.6624 215.5589 14.63957816 72866"}}, "geometry": {"type": "Point", "coordinates": [127.42046319927657, -59.801235581804534]}}, {"type": "Feature", "properties": {"norad_id": 29079, "name": "EROS B", "group": "resource", "lat": 18.819299297470987, "lon": -76.60012502082293, "alt_km": 367.7036531924914, "timestamp": "2025-12-10T09:57:44.360819+00:00", "meta": {"OBJECT_NAME": "EROS B", "OBJECT_ID": "2006-014A", "EPOCH": "2025-12-09T19:29:08.602368", "MEAN_MOTION": 15.67048707, "ECCENTRICITY": 0.0001679, "INCLINATION": 97.3476, "RA_OF_ASC_NODE": 100.2485, "ARG_OF_PERICENTER": 284.7593, "MEAN_ANOMALY": 75.3481, "EPHEMERIS_TYPE": 0, "CLASSIFICATION_TYPE": "U", "NORAD_CAT_ID": 29079, "ELEMENT_SET_NO": 999, "REV_AT_EPOCH": 9034, "BSTAR": 0.0017975, "MEAN_MOTION_DOT": 0.00195346, "MEAN_MOTION_DDOT": 0}, "tle": {"line1": "1 29079U 06014A   25343.81190512  .00195346  00000+0  17975-2 0  9990", "line2": "2 29079  97.3476 100.2485 0001679 284.7593  75.3481 15.67048707 90345"}}, "geometry": {"type": "Point", "coordinates": [-76.60012502082293, 18.819299297470987]}}, {"type": "Feature", "properties": {"norad_id": 29228, "name": "RESURS-DK 1", "group": "resource", "lat": 4.092918226212821, "lon": -73.65238682494403, "alt_km": 531.135416501781, "timestamp": "2025-12-10T09:57:44.360829+00:00", "meta": {"OBJECT_NAME": "RESURS-DK 1", "OBJECT_ID": "2006-021A", "EPOCH": "2025-12-09T18:53:58.310016", "MEAN_MOTION": 15.12136626, "ECCENTRICITY": 0.0007519, "INCLINATION": 69.9336, "RA_OF_ASC_NODE": 109.4675, "ARG_OF_PERICENTER": 261.958, "MEAN_ANOMALY": 98.0733, "EPHEMERIS_TYPE": 0, "CLASSIFICATION_TYPE": "U", "NORAD_CAT_ID": 29228, "ELEMENT_SET_NO": 999, "REV_AT_EPOCH": 7393, "BSTAR": 0.00027732, "MEAN_MOTION_DOT": 4.688e-05, "MEAN_MOTION_DDOT": 0}, "tle": {"line1": "1 29228U 06021A   25343.78748044  .00004688  00000+0  27732-3 0  9990", "line2": "2 29228  69.9336 109.4675 0007519 261.9580  98.0733 15.12136626 73931"}}, "geometry": {"type": "Point", "coordinates": [-73.65238682494403, 4.092918226212821]}}, {"type": "Feature", "properties": {"norad_id": 29268, "name": "ARIRANG-2 (KOMPSAT-2)", "group": "resource", "lat": -20.0340182284985, "lon": -9.87366252998317, "alt_km": 688.2898339293861, "timestamp": "2025-12-10T09:57:44.360841+00:00", "meta": {"OBJECT_NAME": "ARIRANG-2 (KOMPSAT-2)", "OBJECT_ID": "2006-031A", "EPOCH": "2025-12-10T04:44:03.123168", "MEAN_MOTION": 14.64489381, "ECCENTRICITY": 0.0013642, "INCLINATION": 97.826, "RA_OF_ASC_NODE": 172.7939, "ARG_OF_PERICENTER": 317.8971, "MEAN_ANOMALY": 174.5676, "EPHEMERIS_TYPE": 0, "CLASSIFICATION_TYPE": "U", "NORAD_CAT_ID": 29268, "ELEMENT_SET_NO": 999, "REV_AT_EPOCH": 3381, "BSTAR": 8.9727e-05, "MEAN_MOTION_DOT": 4.31e-06, "MEAN_MOTION_DDOT": 0}, "tle": {"line1": "1 29268U 06031A   25344.19725837  .00000431  00000+0  89727-4 0  9991", "line2": "2 29268  97.8260 172.7939 0013642 317.8971 174.5676 14.64489381 33810"}}, "geometry": {"type": "Point", "coordinates": [-9.87366252998317, -20.0340182284985]}}, {"type": "Feature", "properties": {"norad_id": 29709, "name": "LAPAN-TUBSAT", "group": "resource", "lat": -41.88572972754106, "lon": -18.114684636349367, "alt_km": 623.3446505388829, "timestamp": "2025-12-10T09:57:44.360851+00:00", "meta": {"OBJECT_NAME": "LAPAN-TUBSAT", "OBJECT_ID": "2007-001A", "EPOCH": "2025-12-10T03:41:14.218656", "MEAN_MOTION": 14.85665726, "ECCENTRICITY": 0.0013723, "INCLINATION": 98.1257, "RA_OF_ASC_NODE": 334.2569, "ARG_OF_PERICENTER": 81.6564, "MEAN_ANOMALY": 278.6205, "EPHEMERIS_TYPE": 0, "CLASSIFICATION_TYPE": "U", "NORAD_CAT_ID": 29709, "ELEMENT_SET_NO": 999, "REV_AT_EPOCH": 2308, "BSTAR": 0.00014906, "MEAN_MOTION_DOT": 1.236e-05, "MEAN_MOTION_DDOT": 0}, "tle": {"line1": "1 29709U 07001A   25344.15363679  .00001236  00000+0  14906-3 0  9997", "line2": "2 29709  98.1257 334.2569 0013723  81.6564 278.6205 14.85665726 23082"}}, "geometry": {"type": "Point", "coordinates": [-18.114684636349367, -41.88572972754106]}}, {"type": "Feature", "properties": {"norad_id": 31113, "name": "HAIYANG-1B", "group": "resource", "lat": -59.03031897104238, "lon": -17.078132169032433, "alt_km": 798.1498854930041, "timestamp": "2025-12-10T09:57:44.360862+00:00", "meta": {"OBJECT_NAME": "HAIYANG-1B", "OBJECT_ID": "2007-010A", "EPOCH": "2025-12-09T20:49:01.643232", "MEAN_MOTION": 14.30963669, "ECCENTRICITY": 0.0014375, "INCLINATION": 98.3312, "RA_OF_ASC_NODE": 328.2642, "ARG_OF_PERICENTER": 45.9495, "MEAN_ANOMALY": 314.287, "EPHEMERIS_TYPE": 0, "CLASSIFICATION_TYPE": "U", "NORAD_CAT_ID": 31113, "ELEMENT_SET_NO": 999, "REV_AT_EPOCH": 97355, "BSTAR": 0.00010677, "MEAN_MOTION_DOT": 2.39e-06, "MEAN_MOTION_DDOT": 0}, "tle": {"line1": "1 31113U 07010A   25343.86738013  .00000239  00000+0  10677-3 0  9997", "line2": "2 31113  98.3312 328.2642 0014375  45.9495 314.2870 14.30963669973551"}}, "geometry": {"type": "Point", "coordinates": [-17.078132169032433, -59.03031897104238]}}, {"type": "Feature", "properties": {"norad_id": 31598, "name": "COSMO-SKYMED 1", "group": "resource", "lat": -9.705098605196875, "lon": -11.558835755471593, "alt_km": 584.5250128817697, "timestamp": "2025-12-10T09:57:44.360872+00:00", "meta": {"OBJECT_NAME": "COSMO-SKYMED 1", "OBJECT_ID": "2007-023A", "EPOCH": "2025-12-09T20:16:21.325728", "MEAN_MOTION": 14.9573006, "ECCENTRICITY": 0.0001046, "INCLINATION": 97.8835, "RA_OF_ASC_NODE": 169.2252, "ARG_OF_PERICENTER": 83.6484, "MEAN_ANOMALY": 276.4855, "EPHEMERIS_TYPE": 0, "CLASSIFICATION_TYPE": "U", "NORAD_CAT_ID": 31598, "ELEMENT_SET_NO": 999, "REV_AT_EPOCH": 147, "BSTAR": 0.00055295, "MEAN_MOTION_DOT": 6.103e-05, "MEAN_MOTION_DDOT": 0}, "tle": {"line1": "1 31598U 07023A   25343.84469127  .00006103  00000+0  55295-3 0  9994", "line2": "2 31598  97.8835 169.2252 0001046  83.6484 276.4855 14.95730060  1473"}}, "geometry": {"type": "Point", "coordinates": [-11.558835755471593, -9.705098605196875]}}, {"type": "Feature", "properties": {"norad_id": 31698, "name": "TERRASAR-X", "group": "resource", "lat": 9.839985331062268, "lon": -11.469824230271774, "alt_km": 509.7369311229768, "timestamp": "2025-12-10T09:57:44.360882+00:00", "meta": {"OBJECT_NAME": "TERRASAR-X", "OBJECT_ID": "2007-026A", "EPOCH": "2025-12-09T11:47:13.204320", "MEAN_MOTION": 15.19146544, "ECCENTRICITY": 0.0001961, "INCLINATION": 97.4451, "RA_OF_ASC_NODE": 348.9193, "ARG_OF_PERICENTER": 86.8081, "MEAN_ANOMALY": 273.3378, "EPHEMERIS_TYPE": 0, "CLASSIFICATION_TYPE": "U", "NORAD_CAT_ID": 31698, "ELEMENT_SET_NO": 999, "REV_AT_EPOCH": 2442, "BSTAR": 0.00012751, "MEAN_MOTION_DOT": 2.611e-05, "MEAN_MOTION_DDOT": 0}, "tle": {"line1": "1 31698U 07026A   25343.49112505  .00002611  00000+0  12751-3 0  9994", "line2": "2 31698  97.4451 348.9193 0001961  86.8081 273.3378 15.19146544 24429"}}, "geometry": {"type": "Point", "coordinates": [-11.469824230271774, 9.839985331062268]}}, {"type": "Feature", "properties": {"norad_id": 32060, "name": "WORLDVIEW-1 (WV-1)", "group": "resource", "lat": -34.419447775853214, "lon": 107.02662389016496, "alt_km": 498.5767446383579, "timestamp": "2025-12-10T09:57:44.360893+00:00", "meta": {"OBJECT_NAME": "WORLDVIEW-1 (WV-1)", "OBJECT_ID": "2007-041A", "EPOCH": "2025-12-09T18:21:45.684576", "MEAN_MOTION": 15.24610182, "ECCENTRICITY": 7.28e-05, "INCLINATION": 97.3837, "RA_OF_ASC_NODE": 101.2881, "ARG_OF_PERICENTER": 104.1233, "MEAN_ANOMALY": 256.0086, "EPHEMERIS_TYPE": 0, "CLASSIFICATION_TYPE": "U", "NORAD_CAT_ID": 32060, "ELEMENT_SET_NO": 999, "REV_AT_EPOCH": 1402, "BSTAR": 0.0005059, "MEAN_MOTION_DOT": 0.00012417, "MEAN_MOTION_DDOT": 0}, "tle": {"line1": "1 32060U 07041A   25343.76511209  .00012417  00000+0  50590-3 0  9997", "line2": "2 32060  97.3837 101.2881 0000728 104.1233 256.0086 15.24610182 14026"}}, "geometry": {"type": "Point", "coordinates": [107.02662389016496, -34.419447775853214]}}]}